start=new Date('2021-09-17T00:00:00.000Z').valueOf();
sats=[{"ECCENTRICITY":"0.00014050","EPOCH":"2021-09-16T20:27:26.038080","ELEMENT_SET_NO":"999","PERIAPSIS":"541.846","MEAN_ANOMALY":"283.2168","CENTER_NAME":"EARTH","FILE":"3117396","BSTAR":"0.00025433000000","REV_AT_EPOCH":"9475","DECAY_DATE":null,"EPHEMERIS_TYPE":"0","INCLINATION":"52.9998","MEAN_MOTION_DOT":"0.00003655","NORAD_CAT_ID":"44963","TIME_SYSTEM":"UTC","MEAN_MOTION_DDOT":"0.0000000000000","OBJECT_ID":"2020-001BB","PERIOD":"95.501","RCS_SIZE":"LARGE","MEAN_ELEMENT_THEORY":"SGP4","LAUNCH_DATE":"2020-01-07","TLE_LINE2":"2 44963  52.9998  82.7364 0001405  76.8977 283.2168 15.07835258 94753","CLASSIFICATION_TYPE":"U","OBJECT_TYPE":"PAYLOAD","ARG_OF_PERICENTER":"76.8977","OBJECT_NAME":"STARLINK-1085","RA_OF_ASC_NODE":"82.7364","APOAPSIS":"543.791","SITE":"AFETR","REF_FRAME":"TEME","TLE_LINE1":"1 44963U 20001BB  21259.85238470  .00003655  00000-0  25433-3 0  9994","SEMIMAJOR_AXIS":"6920.953","GP_ID":"184829794","COUNTRY_CODE":"US","MEAN_MOTION":"15.07835258"},{"GP_ID":"184851196","COUNTRY_CODE":"US","MEAN_MOTION":"15.06399196","SEMIMAJOR_AXIS":"6925.351","RA_OF_ASC_NODE":"85.3428","ARG_OF_PERICENTER":"89.4046","OBJECT_TYPE":"PAYLOAD","OBJECT_NAME":"STARLINK-1086","TLE_LINE1":"1 44964U 20001BC  21259.93190009  .00001082  00000-0  91512-4 0  9993","SITE":"AFETR","REF_FRAME":"TEME","APOAPSIS":"548.470","RCS_SIZE":"LARGE","MEAN_ELEMENT_THEORY":"SGP4","PERIOD":"95.592","OBJECT_ID":"2020-001BC","MEAN_MOTION_DDOT":"0.0000000000000","CLASSIFICATION_TYPE":"U","LAUNCH_DATE":"2020-01-07","TLE_LINE2":"2 44964  53.0555  85.3428 0001810  89.4046 270.7150 15.06399196 94018","MEAN_MOTION_DOT":"0.00001082","EPHEMERIS_TYPE":"0","DECAY_DATE":null,"INCLINATION":"53.0555","REV_AT_EPOCH":"9401","TIME_SYSTEM":"UTC","NORAD_CAT_ID":"44964","MEAN_ANOMALY":"270.7150","PERIAPSIS":"545.963","BSTAR":"0.00009151200000","FILE":"3117438","CENTER_NAME":"EARTH","ECCENTRICITY":"0.00018100","EPOCH":"2021-09-16T22:21:56.167776","ELEMENT_SET_NO":"999"},{"PERIAPSIS":"546.270","MEAN_ANOMALY":"255.4994","BSTAR":"0.00010871000000","CENTER_NAME":"EARTH","FILE":"3117438","MEAN_MOTION_DOT":"0.00001338","REV_AT_EPOCH":"9401","DECAY_DATE":null,"INCLINATION":"53.0544","EPHEMERIS_TYPE":"0","TIME_SYSTEM":"UTC","NORAD_CAT_ID":"44966","ECCENTRICITY":"0.00013910","EPOCH":"2021-09-16T22:53:46.789728","ELEMENT_SET_NO":"999","SEMIMAJOR_AXIS":"6925.368","GP_ID":"184849450","MEAN_MOTION":"15.06393564","COUNTRY_CODE":"US","RCS_SIZE":"LARGE","MEAN_ELEMENT_THEORY":"SGP4","MEAN_MOTION_DDOT":"0.0000000000000","OBJECT_ID":"2020-001BE","PERIOD":"95.593","CLASSIFICATION_TYPE":"U","LAUNCH_DATE":"2020-01-07","TLE_LINE2":"2 44966  53.0544  85.2343 0001391 104.6149 255.4994 15.06393564 94010","RA_OF_ASC_NODE":"85.2343","OBJECT_TYPE":"PAYLOAD","OBJECT_NAME":"STARLINK-1088","ARG_OF_PERICENTER":"104.6149","TLE_LINE1":"1 44966U 20001BE  21259.95401377  .00001338  00000-0  10871-3 0  9992","APOAPSIS":"548.197","SITE":"AFETR","REF_FRAME":"TEME"},{"MEAN_MOTION":"15.06395948","COUNTRY_CODE":"US","GP_ID":"184850199","SEMIMAJOR_AXIS":"6925.361","TLE_LINE1":"1 44967U 20001BF  21259.90979232 -.00001821  00000-0 -10340-3 0  9998","APOAPSIS":"548.391","REF_FRAME":"TEME","SITE":"AFETR","RA_OF_ASC_NODE":"85.4362","ARG_OF_PERICENTER":"87.9757","OBJECT_TYPE":"PAYLOAD","OBJECT_NAME":"STARLINK-1089","CLASSIFICATION_TYPE":"U","TLE_LINE2":"2 44967  53.0549  85.4362 0001682  87.9757 272.1425 15.06395948 94013","LAUNCH_DATE":"2020-01-07","RCS_SIZE":"LARGE","MEAN_ELEMENT_THEORY":"SGP4","MEAN_MOTION_DDOT":"0.0000000000000","OBJECT_ID":"2020-001BF","PERIOD":"95.592","TIME_SYSTEM":"UTC","NORAD_CAT_ID":"44967","MEAN_MOTION_DOT":"-0.00001821","REV_AT_EPOCH":"9401","EPHEMERIS_TYPE":"0","DECAY_DATE":null,"INCLINATION":"53.0549","BSTAR":"-0.00010340000000","CENTER_NAME":"EARTH","FILE":"3117438","PERIAPSIS":"546.061","MEAN_ANOMALY":"272.1425","ELEMENT_SET_NO":"999","EPOCH":"2021-09-16T21:50:06.056448","ECCENTRICITY":"0.00016820"},{"SEMIMAJOR_AXIS":"6925.368","MEAN_MOTION":"15.06393515","COUNTRY_CODE":"US","GP_ID":"184850951","CLASSIFICATION_TYPE":"U","TLE_LINE2":"2 44968  53.0546  86.3422 0001905  95.4260 264.6946 15.06393515 93986","LAUNCH_DATE":"2020-01-07","RCS_SIZE":"LARGE","MEAN_ELEMENT_THEORY":"SGP4","MEAN_MOTION_DDOT":"0.0000000000000","OBJECT_ID":"2020-001BG","PERIOD":"95.593","TLE_LINE1":"1 44968U 20001BG  21259.70706454  .00001197  00000-0  99277-4 0  9992","APOAPSIS":"548.553","REF_FRAME":"TEME","SITE":"AFETR","RA_OF_ASC_NODE":"86.3422","OBJECT_TYPE":"PAYLOAD","OBJECT_NAME":"STARLINK-1090","ARG_OF_PERICENTER":"95.4260","BSTAR":"0.00009927700000","CENTER_NAME":"EARTH","FILE":"3117438","PERIAPSIS":"545.914","MEAN_ANOMALY":"264.6946","TIME_SYSTEM":"UTC","NORAD_CAT_ID":"44968","MEAN_MOTION_DOT":"0.00001197","REV_AT_EPOCH":"9398","DECAY_DATE":null,"EPHEMERIS_TYPE":"0","INCLINATION":"53.0546","ELEMENT_SET_NO":"999","ECCENTRICITY":"0.00019050","EPOCH":"2021-09-16T16:58:10.376256"},{"LAUNCH_DATE":"2020-01-07","TLE_LINE2":"2 44969  53.0545  85.4832 0001992  91.5966 268.5251 15.06397318 94008","CLASSIFICATION_TYPE":"U","OBJECT_ID":"2020-001BH","MEAN_MOTION_DDOT":"0.0000000000000","PERIOD":"95.592","RCS_SIZE":"LARGE","MEAN_ELEMENT_THEORY":"SGP4","APOAPSIS":"548.601","SITE":"AFETR","REF_FRAME":"TEME","TLE_LINE1":"1 44969U 20001BH  21259.89872710  .00000969  00000-0  83936-4 0  9993","OBJECT_TYPE":"PAYLOAD","ARG_OF_PERICENTER":"91.5966","OBJECT_NAME":"STARLINK-1092","RA_OF_ASC_NODE":"85.4832","SEMIMAJOR_AXIS":"6925.357","COUNTRY_CODE":"US","MEAN_MOTION":"15.06397318","GP_ID":"184850697","ELEMENT_SET_NO":"999","ECCENTRICITY":"0.00019920","EPOCH":"2021-09-16T21:34:10.021440","CENTER_NAME":"EARTH","FILE":"3117438","BSTAR":"0.00008393600000","PERIAPSIS":"545.842","MEAN_ANOMALY":"268.5251","NORAD_CAT_ID":"44969","TIME_SYSTEM":"UTC","REV_AT_EPOCH":"9400","DECAY_DATE":null,"EPHEMERIS_TYPE":"0","INCLINATION":"53.0545","MEAN_MOTION_DOT":"0.00000969"},{"GP_ID":"184849950","COUNTRY_CODE":"US","MEAN_MOTION":"15.06395178","SEMIMAJOR_AXIS":"6925.363","OBJECT_TYPE":"PAYLOAD","OBJECT_NAME":"STARLINK-1093","ARG_OF_PERICENTER":"91.6727","RA_OF_ASC_NODE":"85.8826","REF_FRAME":"TEME","SITE":"AFETR","APOAPSIS":"548.493","TLE_LINE1":"1 44970U 20001BJ  21259.81027095  .00000850  00000-0  75995-4 0  9990","PERIOD":"95.592","OBJECT_ID":"2020-001BJ","MEAN_MOTION_DDOT":"0.0000000000000","MEAN_ELEMENT_THEORY":"SGP4","RCS_SIZE":"LARGE","LAUNCH_DATE":"2020-01-07","TLE_LINE2":"2 44970  53.0574  85.8826 0001826  91.6727 268.4471 15.06395178 93982","CLASSIFICATION_TYPE":"U","EPHEMERIS_TYPE":"0","DECAY_DATE":null,"INCLINATION":"53.0574","REV_AT_EPOCH":"9398","MEAN_MOTION_DOT":"0.00000850","NORAD_CAT_ID":"44970","TIME_SYSTEM":"UTC","MEAN_ANOMALY":"268.4471","PERIAPSIS":"545.964","FILE":"3117438","CENTER_NAME":"EARTH","BSTAR":"0.00007599500000","ECCENTRICITY":"0.00018260","EPOCH":"2021-09-16T19:26:47.410080","ELEMENT_SET_NO":"999"},{"SEMIMAJOR_AXIS":"6633.950","GP_ID":"184854111","COUNTRY_CODE":"US","MEAN_MOTION":"16.06735904","RCS_SIZE":"LARGE","MEAN_ELEMENT_THEORY":"SGP4","PERIOD":"89.623","OBJECT_ID":"2020-001BK","MEAN_MOTION_DDOT":"0.0017318000000","CLASSIFICATION_TYPE":"U","TLE_LINE2":"2 44971  53.0159  30.3726 0014423 324.9623  34.9722 16.06735904 94780","LAUNCH_DATE":"2020-01-07","RA_OF_ASC_NODE":"30.3726","OBJECT_TYPE":"PAYLOAD","OBJECT_NAME":"STARLINK-1095","ARG_OF_PERICENTER":"324.9623","TLE_LINE1":"1 44971U 20001BK  21260.12454601  .01603468  17318-2  20668-2 0  9996","SITE":"AFETR","REF_FRAME":"TEME","APOAPSIS":"265.383","MEAN_ANOMALY":"34.9722","PERIAPSIS":"246.247","BSTAR":"0.00206680000000","FILE":"3117443","CENTER_NAME":"EARTH","MEAN_MOTION_DOT":"0.01603468","INCLINATION":"53.0159","DECAY_DATE":null,"EPHEMERIS_TYPE":"0","REV_AT_EPOCH":"9478","TIME_SYSTEM":"UTC","NORAD_CAT_ID":"44971","ECCENTRICITY":"0.00144230","EPOCH":"2021-09-17T02:59:20.775264","ELEMENT_SET_NO":"999"},{"SEMIMAJOR_AXIS":"6925.336","GP_ID":"184850452","COUNTRY_CODE":"US","MEAN_MOTION":"15.06404170","RCS_SIZE":"LARGE","MEAN_ELEMENT_THEORY":"SGP4","OBJECT_ID":"2020-001BL","MEAN_MOTION_DDOT":"0.0000000000000","PERIOD":"95.592","CLASSIFICATION_TYPE":"U","TLE_LINE2":"2 44972  53.0537  86.0112 0002397  88.4682 271.6582 15.06404170 93995","LAUNCH_DATE":"2020-01-07","RA_OF_ASC_NODE":"86.0112","ARG_OF_PERICENTER":"88.4682","OBJECT_TYPE":"PAYLOAD","OBJECT_NAME":"STARLINK-1107","TLE_LINE1":"1 44972U 20001BL  21259.78076407  .00001082  00000-0  91514-4 0  9992","APOAPSIS":"548.861","SITE":"AFETR","REF_FRAME":"TEME","PERIAPSIS":"545.541","MEAN_ANOMALY":"271.6582","BSTAR":"0.00009151400000","CENTER_NAME":"EARTH","FILE":"3117438","MEAN_MOTION_DOT":"0.00001082","REV_AT_EPOCH":"9399","EPHEMERIS_TYPE":"0","DECAY_DATE":null,"INCLINATION":"53.0537","TIME_SYSTEM":"UTC","NORAD_CAT_ID":"44972","ECCENTRICITY":"0.00023970","EPOCH":"2021-09-16T18:44:18.015648","ELEMENT_SET_NO":"999"},{"ECCENTRICITY":"0.00019060","EPOCH":"2021-09-16T21:23:33.684576","ELEMENT_SET_NO":"999","PERIAPSIS":"545.932","MEAN_ANOMALY":"274.1001","BSTAR":"-0.00004235200000","CENTER_NAME":"EARTH","FILE":"3117438","MEAN_MOTION_DOT":"-0.00000912","REV_AT_EPOCH":"9400","INCLINATION":"53.0550","DECAY_DATE":null,"EPHEMERIS_TYPE":"0","TIME_SYSTEM":"UTC","NORAD_CAT_ID":"44973","RCS_SIZE":"LARGE","MEAN_ELEMENT_THEORY":"SGP4","OBJECT_ID":"2020-001BM","MEAN_MOTION_DDOT":"0.0000000000000","PERIOD":"95.593","CLASSIFICATION_TYPE":"U","TLE_LINE2":"2 44973  53.0550  85.5160 0001906  86.0206 274.1001 15.06387563 94002","LAUNCH_DATE":"2020-01-07","RA_OF_ASC_NODE":"85.5160","OBJECT_TYPE":"PAYLOAD","OBJECT_NAME":"STARLINK-1115","ARG_OF_PERICENTER":"86.0206","TLE_LINE1":"1 44973U 20001BM  21259.89136209 -.00000912  00000-0 -42352-4 0  9991","APOAPSIS":"548.572","REF_FRAME":"TEME","SITE":"AFETR","SEMIMAJOR_AXIS":"6925.387","GP_ID":"184851197","COUNTRY_CODE":"US","MEAN_MOTION":"15.06387563"}];
